OBJECT_NAME,OBJECT_ID,EPOCH,MEAN_MOTION,ECCENTRICITY,INCLINATION,RA_OF_ASC_NODE,ARG_OF_PERICENTER,MEAN_ANOMALY,EPHEMERIS_TYPE,CLASSIFICATION_TYPE,NORAD_CAT_ID,ELEMENT_SET_NO,REV_AT_EPOCH,BSTAR,MEAN_MOTION_DOT,MEAN_MOTION_DDOT
DMSP 5D-3 F16 (USA 172),2003-048A,2026-06-14T04:43:05.159136,14.14482907,.0007619,98.9891,189.0051,147.9841,287.9915,0,U,28054,999,16906,.31104E-4,.14E-6,0
METEOSAT-9 (MSG-2),2005-049B,2026-06-13T20:12:48.957984,1.00270562,.00015434,9.3538,54.2002,346.3460,210.4526,0,U,28912,999,696,0,.126E-5,0
DMSP 5D-3 F17 (USA 191),2006-050A,2026-06-14T04:47:44.556000,14.14992719,.0011235,98.7378,171.8310,67.1624,293.0735,0,U,29522,999,1200,.40796E-4,.36E-6,0
FENGYUN 3A,2008-026A,2026-06-14T02:05:18.446784,14.19570531,.0009476,98.6883,105.9781,131.7324,228.4664,0,U,32958,999,93496,.46595E-4,.55E-6,0
GOES 14,2009-033A,2026-06-13T22:23:30.539040,1.00111819,.0001714,1.6815,83.0799,10.3122,288.4310,0,U,35491,999,655,0,-.27E-5,0
DMSP 5D-3 F18 (USA 210),2009-057A,2026-06-14T04:06:14.553792,14.14895253,.0009855,98.9037,145.9466,259.0856,100.9208,0,U,35951,999,85916,.13404E-3,.214E-5,0
EWS-G2 (GOES 15),2010-008A,2026-06-14T04:57:21.688128,1.00275741,.0005356,1.2692,82.9108,41.7889,275.8340,0,U,36411,999,5960,0,.26E-6,0
COMS 1,2010-032A,2026-06-13T20:36:26.895168,0.99162789,.00114466,4.7961,75.3929,11.6277,210.9948,0,U,36744,999,5105,0,.3E-7,0
FENGYUN 3B,2010-059A,2026-06-14T04:44:06.047808,14.14841710,.0021773,98.9626,211.1989,192.6707,254.5978,0,U,37214,999,80700,.17645E-3,.296E-5,0
SUOMI NPP,2011-061A,2026-06-14T04:02:53.081088,14.19516778,.0001705,98.7954,106.0653,14.1024,346.0200,0,U,37849,999,75801,.44084E-4,.49E-6,0
METEOSAT-10 (MSG-3),2012-035B,2026-06-14T01:07:52.996224,1.00276246,.0001428,4.6640,61.0333,328.3191,250.2757,0,U,38552,999,5082,0,.1E-7,0
METOP-B,2012-049A,2026-06-14T03:54:25.697088,14.21431917,.0002418,98.6505,216.7222,27.0817,333.0487,0,U,38771,999,71283,.62027E-4,.92E-6,0
INSAT-3D,2013-038B,2026-06-13T22:19:23.435040,1.00270661,.0000558,1.9175,82.5789,308.0873,335.9433,0,U,39216,999,4704,0,-.331E-5,0
FENGYUN 3C,2013-052A,2026-06-14T05:12:17.936928,14.15754453,.0015391,98.4986,139.2281,35.8416,324.3789,0,U,39260,999,65814,.48517E-4,.54E-6,0
METEOR-M 2,2014-037A,2026-06-14T04:32:28.648608,14.21462187,.0006866,98.5105,141.0335,51.5247,308.6546,0,U,40069,999,61889,.22625E-3,.453E-5,0
HIMAWARI-8,2014-060A,2026-06-13T22:22:38.122752,1.00272750,.0000979,0.0084,313.3740,133.4089,291.7739,0,U,40267,999,4272,0,-.266E-5,0
FENGYUN 2G,2014-090A,2026-06-13T18:53:04.530336,1.00273878,.00039762,5.6288,72.8570,153.7441,58.4326,0,U,40367,999,4196,0,-.297E-5,0
METEOSAT-11 (MSG-4),2015-034A,2026-06-14T04:35:47.903424,1.00279423,.0001759,3.1942,71.1280,9.7392,260.1554,0,U,40732,999,718,0,.71E-6,0
ELEKTRO-L 2,2015-074A,2026-06-14T01:03:32.621184,1.00270718,.0000705,6.6845,70.5612,243.9352,309.2359,0,U,41105,999,3847,0,-.114E-5,0
SENTINEL-3A,2016-011A,2026-06-14T04:49:24.245184,14.26739233,.0001386,98.6249,232.6274,102.6582,257.4753,0,U,41335,999,53763,.61016E-4,.104E-5,0
INSAT-3DR,2016-054A,2026-06-14T04:02:21.686784,1.00270810,.0010636,0.0985,86.7947,187.1090,123.1361,0,U,41752,999,3578,0,-.68E-6,0
HIMAWARI-9,2016-064A,2026-06-13T22:22:38.122752,1.00270150,.000081,0.0479,148.3842,350.9423,239.3458,0,U,41836,999,3517,0,-.265E-5,0
GOES 16,2016-071A,2026-06-13T21:12:32.434272,1.00270023,.000021,0.3323,85.5371,285.5683,104.5318,0,U,41866,999,3507,0,-.81E-6,0
FENGYUN 4A,2016-077A,2026-06-14T00:00:27.680832,1.00270273,.0008684,2.3133,80.3223,152.8015,153.0792,0,U,41882,999,3489,0,-.349E-5,0
CYGFM05,2016-078A,2026-06-13T17:11:23.418528,15.56530665,.00067528,34.9574,283.5706,115.6149,244.5273,0,U,41884,999,52821,.326847E-3,.24006E-3,0
CYGFM04,2016-078B,2026-06-13T15:12:28.683648,15.61331969,.00062618,34.9325,251.9875,161.5646,198.5308,0,U,41885,999,52844,.33168208E-3,.29269E-3,0
CYGFM02,2016-078C,2026-06-13T15:23:13.155936,15.64293881,.0007226,34.9406,246.5765,162.7791,197.3182,0,U,41886,999,52861,.35158861E-3,.34896E-3,0
CYGFM01,2016-078D,2026-06-14T00:38:53.647584,15.57218128,.0006537,34.9405,282.5968,112.3531,247.7887,0,U,41887,999,52821,.3409E-3,.25699E-3,0
CYGFM08,2016-078E,2026-06-13T16:07:32.198016,15.59850919,.00078769,34.9434,264.6224,142.8564,217.2707,0,U,41888,999,52842,.3411213E-3,.28443E-3,0
CYGFM07,2016-078G,2026-06-13T22:49:46.736832,15.59966765,.0006731,34.9447,251.1080,163.9910,196.1028,0,U,41890,999,52849,.34043E-3,.285E-3,0
CYGFM03,2016-078H,2026-06-13T15:59:23.526528,15.59943966,.00060417,34.9403,254.9438,147.8515,212.2580,0,U,41891,999,52842,.3276291E-3,.27393E-3,0
